     2.100          NAVIGATION                              RINEX VERSION / TYPE
fic2rin                                 08/13/2012 00:04:35 PGM / RUN BY / DATE
                                                            END OF HEADER
20 12  8 12 22  0  0.0  .661606900394D-04  .682121026330D-12  .000000000000D+00
     .490000000000D+02 -.625000000000D+01  .545594154758D-08 -.236197628476D+00
    -.301748514175D-06  .494026427623D-02  .729784369469D-05  .515365064812D+04
     .792000000000D+05 -.596046447754D-07 -.160702048400D+01  .540167093277D-07
     .929260860222D+00  .220375000000D+03  .128278802527D+01 -.851606901417D-08
    -.443947063606D-09  .100000000000D+01  .170100000000D+04  .000000000000D+00
     .240000000000D+01  .000000000000D+00 -.791624188423D-08  .490000000000D+02
     .720060000000D+05  .400000000000D+01
21 12  8 12 22  0  0.0 -.242775306106D-03 -.250111042988D-11  .000000000000D+00
     .750000000000D+02  .884375000000D+01  .567309344997D-08  .490634629907D+00
     .726431608200D-06  .193219539942D-01  .656954944134D-05  .515357404518D+04
     .792000000000D+05 -.188127160072D-06 -.260374704449D+01  .188127160072D-06
     .931536187913D+00  .239156250000D+03 -.222729078612D+01 -.878750889216D-08
     .642883921553D-11  .100000000000D+01  .170100000000D+04  .000000000000D+00
     .240000000000D+01  .000000000000D+00 -.111758708954D-07  .750000000000D+02
     .720060000000D+05  .400000000000D+01
22 12  8 12 22  0  0.0  .146484002471D-03  .227373675443D-12  .000000000000D+00
     .400000000000D+02 -.406250000000D+00  .539058168222D-08 -.142821474976D+01
    -.145286321640D-06  .631860387512D-02  .783242285252D-05  .515367127228D+04
     .792000000000D+05  .141561031342D-06 -.155010505194D+01  .838190317154D-07
     .926462988434D+00  .210906250000D+03 -.200993180474D+01 -.834677624816D-08
    -.555023118941D-09  .100000000000D+01  .170100000000D+04  .000000000000D+00
     .240000000000D+01  .000000000000D+00 -.172294676304D-07  .400000000000D+02
     .720060000000D+05  .400000000000D+01
23 12  8 12 22  0  0.0  .175712630153D-03 -.386535248253D-11  .000000000000D+00
     .400000000000D+02  .752812500000D+02  .425160566787D-08  .294247503182D+01
     .384263694286D-05  .820878241211D-02  .911951065063D-05  .515360355568D+04
     .792000000000D+05 -.100582838058D-06 -.499888461584D+00 -.428408384323D-07
     .959405052351D+00  .202750000000D+03 -.295699900539D+01 -.779318176016D-08
    -.130719730716D-09  .100000000000D+01  .170100000000D+04  .000000000000D+00
     .240000000000D+01  .000000000000D+00 -.200234353542D-07  .400000000000D+02
     .720060000000D+05  .400000000000D+01
25 12  8 12 22  0  0.0  .395663082600D-04  .102318153949D-11  .000000000000D+00
     .640000000000D+02 -.951875000000D+02  .441446959466D-08 -.175802312221D+00
    -.486709177494D-05  .183212861884D-02  .544451177120D-05  .515367669487D+04
     .792000000000D+05  .447034835815D-07  .157205363759D+01  .335276126862D-07
     .969337110404D+00  .282812500000D+03  .777798306901D+00 -.813855328913D-08
    -.446447167745D-10  .100000000000D+01  .170100000000D+04  .000000000000D+00
     .240000000000D+01  .000000000000D+00  .512227416039D-08  .640000000000D+02
     .720060000000D+05  .400000000000D+01
27 12  8 12 22  0  0.0  .419500283897D-03  .420641299570D-11  .000000000000D+00
     .190000000000D+03  .516875000000D+02  .390944855851D-08 -.264279633496D+01
     .292621552944D-05  .217489826027D-01  .257231295109D-05  .515370104027D+04
     .792000000000D+05  .521540641785D-07  .497727112766D+00  .230967998505D-06
     .982167355464D+00  .334937500000D+03 -.104901917142D+01 -.772746473707D-08
     .230366738556D-09  .100000000000D+01  .170100000000D+04  .000000000000D+00
     .340000000000D+01  .000000000000D+00 -.419095158577D-08  .190000000000D+03
     .720060000000D+05  .400000000000D+01
28 12  8 12 22  0  0.0  .174571294338D-03  .386535248253D-11  .000000000000D+00
     .600000000000D+02 -.767812500000D+02  .412410035676D-08 -.148693679641D+01
    -.361911952496D-05  .179669189965D-01  .579655170441D-05  .515363153648D+04
     .792000000000D+05  .225380063057D-06  .163187976461D+01  .411644577980D-06
     .979676733045D+00  .272781250000D+03 -.182292211223D+01 -.788568561332D-08
    -.232152527227D-10  .100000000000D+01  .170100000000D+04  .000000000000D+00
     .240000000000D+01  .000000000000D+00 -.107102096081D-07  .600000000000D+02
     .720060000000D+05  .400000000000D+01
29 12  8 12 22  0  0.0  .343556050211D-03  .409272615798D-11  .000000000000D+00
     .340000000000D+02 -.448437500000D+02  .448732977244D-08  .692185758852D+00
    -.223331153393D-05  .197609479073D-02  .967271625996D-05  .515380896950D+04
     .792000000000D+05 -.242143869400D-07  .267375060627D+01 -.745058059692D-08
     .964319285300D+00  .196875000000D+03 -.105028021851D+01 -.787854245863D-08
     .398588031363D-09  .100000000000D+01  .170100000000D+04  .000000000000D+00
     .240000000000D+01  .000000000000D+00 -.977888703346D-08  .340000000000D+02
     .720060000000D+05  .400000000000D+01
30 12  8 12 22  0  0.0 -.358664430678D-03 -.241016095970D-10  .000000000000D+00
     .800000000000D+02 -.829687500000D+02  .445804283824D-08 -.223712374317D+01
    -.412575900555D-05  .112284277566D-01  .377371907234D-05  .515369786644D+04
     .792000000000D+05  .176951289177D-06  .148040517147D+01  .689178705215D-07
     .960528820669D+00  .299250000000D+03  .159296809962D+01 -.805783564120D-08
     .428589281035D-11  .100000000000D+01  .170100000000D+04  .000000000000D+00
     .240000000000D+02  .000000000000D+00 -.419095158577D-08  .800000000000D+02
     .720060000000D+05  .400000000000D+01
 6 12  8 12 23  0  0.0 -.806059688330D-05 -.693489710102D-11  .000000000000D+00
     .105000000000D+03 -.601562500000D+02  .497092134454D-08 -.951738965165D+00
    -.338256359100D-05  .734506896697D-02  .948831439018D-05  .515368866920D+04
     .828000000000D+05  .149011611938D-07  .256963256292D+01 -.126659870148D-06
     .938986188932D+00  .185406250000D+03 -.467856890083D+00 -.820248452355D-08
     .382873091058D-09  .100000000000D+01  .170100000000D+04  .000000000000D+00
     .340000000000D+01  .000000000000D+00 -.512227416039D-08  .105000000000D+03
     .720060000000D+05  .600000000000D+01
 6 12  8 12 21 59 44.0 -.803312286735D-05 -.693489710102D-11  .000000000000D+00
     .500000000000D+01 -.587500000000D+02  .498092176110D-08 -.147912986824D+01
    -.322610139847D-05  .734507816378D-02  .968016684055D-05  .515368907356D+04
     .791840000000D+05 -.316649675369D-07  .256966232160D+01 -.150874257088D-06
     .938984835733D+00  .183968750000D+03 -.467887333408D+00 -.819141263379D-08
     .359657838335D-09  .100000000000D+01  .170100000000D+04  .000000000000D+00
     .240000000000D+01  .000000000000D+00 -.512227416039D-08  .500000000000D+01
     .726960000000D+05  .400000000000D+01
30 12  8 12 21 59 44.0 -.358664430678D-03 -.239879227593D-10  .000000000000D+00
     .500000000000D+01 -.829687500000D+02  .445804283824D-08 -.223945753200D+01
    -.412575900555D-05  .112284292700D-01  .377371907234D-05  .515369787025D+04
     .791840000000D+05  .176951289177D-06  .148040530313D+01  .689178705215D-07
     .960528833836D+00  .299250000000D+03  .159296815960D+01 -.805783564120D-08
     .428589281035D-11  .100000000000D+01  .170100000000D+04  .000000000000D+00
     .340000000000D+01  .000000000000D+00 -.419095158577D-08  .500000000000D+01
     .749760000000D+05  .400000000000D+01
 6 12  8 12 23 59 44.0 -.808294862509D-05 -.693489710102D-11  .000000000000D+00
     .600000000000D+01 -.605937500000D+02  .495484924650D-08 -.428984675608D+00
    -.326521694660D-05  .734510808252D-02  .941753387451D-05  .515368875885D+04
     .863840000000D+05  .484287738800D-07  .256960324458D+01 -.108033418655D-06
     .938987547983D+00  .185593750000D+03 -.467857489880D+00 -.821677083292D-08
     .368943939425D-09  .100000000000D+01  .170100000000D+04  .000000000000D+00
     .240000000000D+01  .000000000000D+00 -.512227416039D-08  .600000000000D+01
     .792060000000D+05  .400000000000D+01
30 12  8 12 23 59 44.0 -.358837191015D-03 -.239879227593D-10  .000000000000D+00
     .600000000000D+01 -.841562500000D+02  .455197532233D-08 -.118939559988D+01
    -.404193997383D-05  .112283668714D-01  .467896461487D-05  .515369570541D+04
     .863840000000D+05 -.119209289551D-06  .148034647627D+01  .197440385818D-06
     .960527332882D+00  .290312500000D+03  .159307241592D+01 -.836784855448D-08
    -.285726187357D-10  .100000000000D+01  .170100000000D+04  .000000000000D+00
     .485000000000D+01  .000000000000D+00 -.419095158577D-08  .600000000000D+01
     .792060000000D+05  .400000000000D+01
 1 12  8 13  0  0  0.0  .269381329417D-03  .147792889038D-11  .000000000000D+00
     .820000000000D+02  .130625000000D+02  .486984570576D-08  .292297373695D+01
     .718981027603D-06  .103619799484D-02  .698491930962D-05  .515363887978D+04
     .864000000000D+05 -.353902578354D-07 -.261066842592D+01 -.167638063431D-07
     .960242647561D+00  .244687500000D+03  .307359860875D+00 -.802033407911D-08
     .278583032673D-09  .100000000000D+01  .170100000000D+04  .000000000000D+00
     .240000000000D+01  .000000000000D+00  .838190317154D-08  .820000000000D+02
     .792060000000D+05  .400000000000D+01
 2 12  8 13  0  0  0.0  .399699434638D-03  .113686837722D-11  .000000000000D+00
     .380000000000D+02  .853125000000D+01  .536736642950D-08 -.246786746237D+01
     .428408384323D-06  .113736090716D-01  .652298331261D-05  .515373508835D+04
     .864000000000D+05 -.186264514923D-08 -.262607669690D+01 -.318512320518D-06
     .938783849807D+00  .240593750000D+03 -.274989183062D+01 -.829070248389D-08
     .244295890190D-09  .100000000000D+01  .170100000000D+04  .000000000000D+00
     .240000000000D+01  .000000000000D+00 -.172294676304D-07  .380000000000D+02
     .792060000000D+05  .400000000000D+01
